COSMOS 2419 (714)       
1 28915U 05050A   16179.46209931 -.00000032  00000-0  00000+0 0  9998
2 28915  65.3256  77.8179 0016511 352.7868 107.9887  2.13110920 81778
COSMOS 2425 (716)       
1 29670U 06062A   16178.45877328 -.00000023  00000-0  10000-3 0  9995
2 29670  65.6295 316.8424 0020534 350.2962 118.1744  2.13104976 73951
COSMOS 2426 (717)       
1 29671U 06062B   16178.49695392 -.00000023  00000-0  10000-3 0  9999
2 29671  65.6473 316.9235 0017982 159.3512 199.2555  2.13102978 73953
COSMOS 2424 (715)       
1 29672U 06062C   16178.78463375 -.00000025  00000-0  10000-3 0  9998
2 29672  65.6317 316.8420 0017536 158.5168 237.0726  2.13102344 73968
COSMOS 2433 (720)       
1 32275U 07052A   16178.31265878 -.00000023  00000-0  10000-3 0  9996
2 32275  65.3412  77.6270 0002830 295.0406 253.3696  2.13104791 67465
COSMOS 2432 (719)       
1 32276U 07052B   16178.74140830 -.00000026  00000-0  10000-3 0  9997
2 32276  65.3527  77.6787 0013062 339.5132 131.6146  2.13104243 67476
COSMOS 2434 (721)       
1 32393U 07065A   16178.73322926 -.00000025  00000-0  00000+0 0  9992
2 32393  65.2483 316.1519 0005871 108.2980 294.7162  2.13102908 66183
COSMOS 2436 (723)       
1 32395U 07065C   16179.46846806 -.00000030  00000-0  10000-3 0  9994
2 32395  65.2608 316.1696 0016423   0.0632 339.0212  2.13102950 66128
COSMOS 2443 (725)       
1 33379U 08046B   16179.16463426 -.00000030  00000-0  10000-3 0  9997
2 33379  65.2704  77.0140 0016172 185.4367 201.5627  2.13101406 60356
COSMOS 2456 (730)       
1 36111U 09070A   16178.43098806  .00000097  00000-0  00000+0 0  9994
2 36111  64.1820 195.7489 0006259 296.3427  44.3891  2.13102948 50838
COSMOS 2457 (733)       
1 36112U 09070B   16178.41727174  .00000097  00000-0  00000+0 0  9990
2 36112  64.1642 195.6760 0006832 188.3171 272.1009  2.13101630 50845
COSMOS 2458 (734)       
1 36113U 09070C   16179.15468520  .00000102  00000-0  10000-3 0  9992
2 36113  64.1699 195.6561 0002458 292.1613  61.5265  2.13102082 50859
COSMOS 2459 (731)       
1 36400U 10007A   16178.64341881 -.00000026  00000-0  10000-3 0  9992
2 36400  65.2491  76.7659 0029566 353.4297 314.0037  2.13102417 49195
COSMOS 2461 (735)       
1 36401U 10007B   16179.42543499 -.00000033  00000-0  10000-3 0  9997
2 36401  65.2432  76.7206 0006948  58.8278  39.1112  2.13102534 49215
COSMOS 2460 (732)       
1 36402U 10007C   16179.02664144 -.00000029  00000-0  10000-3 0  9990
2 36402  65.2325  76.7110 0001577   0.6935 193.1530  2.13101942 49205
COSMOS 2465 (737)       
1 37138U 10041B   16179.45917106 -.00000031  00000-0  00000+0 0  9999
2 37138  64.8478 316.2941 0035782 168.2300 116.1503  2.13093994 45288
COSMOS 2464 (736)       
1 37139U 10041C   16179.24726528 -.00000030  00000-0  00000+0 0  9992
2 37139  64.8542 316.2984 0022650  17.0448 288.0176  2.13102700 45283
COSMOS 2471 (701K)      
1 37372U 11009A   16179.46544755 -.00000033  00000-0  00000+0 0  9993
2 37372  65.2300  76.6451 0007252 241.6262  61.4793  2.13102784 41483
COSMOS 2474 (742)       
1 37829U 11055A   16179.04633626  .00000101  00000-0  00000+0 0  9996
2 37829  64.5063 196.1440 0010598 254.0202  60.1669  2.13102003 36849
COSMOS 2476 (744)       
1 37867U 11064A   16179.55774466  .00000105  00000-0  00000+0 0  9996
2 37867  64.4861 196.2074 0019505 248.4015 143.9625  2.13102086 36210
COSMOS 2477 (745)       
1 37868U 11064B   16179.41660757  .00000104  00000-0  00000+0 0  9998
2 37868  64.4952 196.2532 0017458 249.5161 213.8695  2.13101945 36161
COSMOS 2475 (743)       
1 37869U 11064C   16178.48984120  .00000097  00000-0  00000+0 0  9999
2 37869  64.5021 196.2726 0022829 273.5632 154.9660  2.13102084 36154
COSMOS 2485 (747)       
1 39155U 13019A   16179.43422896  .00000104  00000-0  00000+0 0  9993
2 39155  64.6557 196.1643 0019735 243.5215  99.2106  2.13102103 24674
COSMOS 2492 (754)       
1 39620U 14012A   16178.70131325 -.00000019  00000-0  19271+2 0  9995
2 39620  65.1224  76.7086 0016563 335.4322 198.2920  2.13103808 17611
COSMOS 2500 (755)       
1 40001U 14032A   16178.35038628 -.00000024  00000-0  00000+0 0  9999
2 40001  65.0617  76.7441 0004727 213.2341 274.9938  2.13103040 15829
COSMOS 2501 (702K)      
1 40315U 14075A   16179.43020692 -.00000031  00000-0  00000+0 0  9994
2 40315  64.6190 317.7453 0016706 231.2688 166.5296  2.13101706 12257
COSMOS 2514 (751)       
1 41330U 16008A   16179.11073167 -.00000030  00000-0  00000+0 0  9999
2 41330  64.8612  76.9526 0007962 221.0396 309.5602  2.13103595  3009
COSMOS 2516 (753)       
1 41554U 16032A   16178.84125468 -.00000027  00000-0  00000+0 0  9991
2 41554  64.8030 317.4476 0010820 216.2798   2.4622  2.13101684   608
